0 METEOR 2-8
1 13113U 82025A   13282.38313619  .00000018  00000-0  30271-5 0  6912
2 13113 082.5420 190.3157 0016828 311.3182 186.4930 13.85283828594313
0 METEOR 2-8
1 13113U 82025A   13283.80654664  .00000030  00000-0  13211-4 0  6927
2 13113 082.5420 189.1824 0016775 307.0402 085.3471 13.85283749594519
0 METEOR 2-8
1 13113U 82025A   13285.83513135  .00000049  00000-0  30223-4 0  6943
2 13113 082.5420 187.5672 0016693 300.9474 122.3319 13.85283747594793
0 METEOR 2-8
1 13113U 82025A   13286.84703122  .00000071  00000-0  49833-4 0  6955
2 13113 082.5419 186.7615 0016672 297.8781 128.9232 13.85283693594933
0 METEOR 2-8
1 13113U 82025A   13288.16454795  .00000095  00000-0  71090-4 0  6968
2 13113 082.5417 185.7126 0016643 293.8952 219.6864 13.85283803595114
0 METEOR 2-8
1 13113U 82025A   13289.17776405  .00000082  00000-0  59416-4 0  6970
2 13113 082.5415 184.9060 0016668 290.7395 232.9234 13.85283935595254
0 METEOR 2-8
1 13113U 82025A   13290.32806976  .00000076  00000-0  53779-4 0  6986
2 13113 082.5412 183.9902 0016660 287.2398 209.7887 13.85284262595419
0 METEOR 2-8
1 13113U 82025A   13291.33941273  .00000075  00000-0  52884-4 0  6994
2 13113 082.5410 183.1850 0016658 284.1714 213.6043 13.85284463595552
0 METEOR 2-8
1 13113U 82025A   13292.84260686  .00000066  00000-0  45307-4 0  7008
2 13113 082.5409 181.9881 0016649 279.6049 150.4087 13.85284648595764
0 METEOR 2-8
1 13113U 82025A   13294.16167894  .00000046  00000-0  27160-4 0  7018
2 13113 082.5409 180.9376 0016631 275.6864 248.8621 13.85284906595947
0 METEOR 2-8
1 13113U 82025A   13295.16189164  .00000061  00000-0  40988-4 0  7024
2 13113 082.5408 180.1412 0016638 272.6524 197.1704 13.85285169596082
0 METEOR 2-8
1 13113U 82025A   13296.17331141  .00000063  00000-0  42918-4 0  7038
2 13113 082.5408 179.3358 0016636 269.5873 201.3688 13.85285257596224
